[{"OBJECT_NAME":"STARLINK-5729","OBJECT_ID":"2023-020AD","EPOCH":"2026-03-09T22:00:01.999584","MEAN_MOTION":15.10104174,"ECCENTRICITY":9.821e-5,"INCLINATION":42.9997,"RA_OF_ASC_NODE":2.8491,"ARG_OF_PERICENTER":242.2129,"MEAN_ANOMALY":346.1294,"EPHEMERIS_TYPE":0,"CLASSIFICATION_TYPE":"U","NORAD_CAT_ID":55596,"ELEMENT_SET_NO":999,"REV_AT_EPOCH":577,"BSTAR":0.073258172,"MEAN_MOTION_DOT":0.01319331,"MEAN_MOTION_DDOT":0},{"OBJECT_NAME":"LEMUR-2-ESPERANZA","OBJECT_ID":"2025-061B","EPOCH":"2026-03-09T20:59:51.017856","MEAN_MOTION":15.12770808,"ECCENTRICITY":0.00169494,"INCLINATION":97.5568,"RA_OF_ASC_NODE":45.1407,"ARG_OF_PERICENTER":244.877,"MEAN_ANOMALY":115.0702,"EPHEMERIS_TYPE":0,"CLASSIFICATION_TYPE":"U","NORAD_CAT_ID":63352,"ELEMENT_SET_NO":999,"REV_AT_EPOCH":5257,"BSTAR":0.00034972806,"MEAN_MOTION_DOT":6.09e-5,"MEAN_MOTION_DDOT":0}]
